OBJECT_NAME,OBJECT_ID,EPOCH,MEAN_MOTION,ECCENTRICITY,INCLINATION,RA_OF_ASC_NODE,ARG_OF_PERICENTER,MEAN_ANOMALY,EPHEMERIS_TYPE,CLASSIFICATION_TYPE,NORAD_CAT_ID,ELEMENT_SET_NO,REV_AT_EPOCH,BSTAR,MEAN_MOTION_DOT,MEAN_MOTION_DDOT
SL-16 R/B,1996-051B,2026-07-20T09:17:39.355584,14.12458573,.0018151,70.7641,254.3896,291.3749,68.5434,0,U,24298,999,54038,.10147E-3,.138E-5,0
CZ-4B R/B,1999-025C,2026-07-20T08:32:29.685696,14.18288220,.00363794,98.6468,242.3569,324.6253,45.4973,0,U,25732,999,40697,.2176891E-4,.2E-7,0
OKEAN-O,1999-039A,2026-07-20T01:25:35.009472,14.80500540,.00008822,97.9296,259.4769,98.3417,261.7896,0,U,25860,999,45397,.41156257E-4,.263E-5,0
SL-16 R/B,1999-039B,2026-07-20T02:50:17.026368,14.81873457,.00147197,97.9818,259.8842,182.1589,177.9562,0,U,25861,999,45647,.31070675E-4,.192E-5,0
DELTA 2 R/B,1999-041E,2026-07-20T03:49:29.025408,14.12097369,.05014862,51.7614,132.0599,19.4111,342.5189,0,U,25876,999,38174,.17945554E-3,.873E-5,0
TITAN 4B R/B,2000-047B,2026-07-20T13:42:02.785248,15.10348993,.0045712,67.9873,26.5919,253.3714,106.2414,0,U,26474,999,41297,.92549251E-4,.1416E-4,0
ENVISAT,2002-009A,2026-07-20T08:46:03.374976,14.39071437,.00013123,98.3848,151.9469,82.4038,82.5292,0,U,27386,999,27825,.24103382E-4,.32E-6,0
IDEFIX & ARIANE 42P R/B,2002-021B,2026-07-20T08:09:42.818688,14.31095168,.00122235,98.5941,138.4649,151.6435,208.5415,0,U,27422,999,26299,.54229548E-4,.99E-6,0
AQUA,2002-022A,2026-07-20T14:22:25.591584,14.62133097,.00013065,98.4300,171.5543,102.1203,27.8992,0,U,27424,999,28815,.86837805E-4,.387E-5,0
CZ-4B R/B,2002-024C,2026-07-20T09:41:50.758080,14.14568653,.00502123,98.8681,254.0052,7.2418,3.9437,0,U,27432,999,24800,.20576221E-4,-.4E-7,0
MIDORI II (ADEOS-II),2002-056A,2026-07-20T07:38:49.038432,14.29364535,.00012722,98.7898,160.8638,34.1296,325.9967,0,U,27597,999,22924,.61089516E-4,.11E-5,0
H-2A R/B,2002-056E,2026-07-20T09:20:57.787008,14.33835630,.00711479,98.3331,156.8572,125.6300,44.7578,0,U,27601,999,23312,.6229826E-4,.137E-5,0
CZ-4B R/B,2003-049C,2026-07-20T10:39:24.773472,14.55118117,.00479615,98.6914,201.6171,185.1551,174.9157,0,U,28059,999,20590,.44714133E-4,.144E-5,0
CZ-2C R/B,2004-012C,2026-07-20T04:00:26.742816,15.86280146,.0010852,97.7034,280.8505,177.0992,183.0343,0,U,28222,999,22511,.42592144E-3,.107047E-2,0
SL-16 R/B,2004-021B,2026-07-20T14:35:31.721856,14.14615965,.00061387,71.0029,313.5496,220.3025,139.7643,0,U,28353,999,14163,-.62443484E-4,-.168E-5,0
CZ-4B R/B,2004-035C,2026-07-20T01:50:39.772608,15.31030176,.00296408,97.3354,233.7867,214.6016,145.3297,0,U,28415,999,20015,.1326108E-3,.3949E-4,0
CZ-2C R/B,2004-046B,2026-07-20T08:33:49.864032,14.27034266,.01403937,98.1910,108.0590,122.2110,239.2773,0,U,28480,999,12742,.36968726E-4,.6E-6,0
ARIANE 5 R/B,2004-049H,2026-07-20T11:21:09.772128,14.85482427,.008251,98.2747,15.0181,280.9028,78.2910,0,U,28499,999,16550,.39649873E-4,.297E-5,0
CZ-2D R/B,2005-024B,2026-07-20T00:20:12.060672,15.73169832,.00032546,97.3471,222.1705,179.1862,180.9408,0,U,28738,999,16049,.31492923E-3,.43179E-3,0
ALOS (DAICHI),2006-002A,2026-07-20T08:58:28.266528,14.70108156,.00009353,98.1340,156.8427,107.2445,252.8863,0,U,28931,999,9297,.10451572E-3,.579E-5,0
H-2A R/B,2006-002B,2026-07-20T09:39:38.787264,15.18495036,.00510791,98.2604,0.2536,148.4490,211.9822,0,U,28932,999,11456,.23684914E-3,.497E-4,0
RESURS-DK 1,2006-021A,2026-07-20T09:59:12.199488,15.13330043,.00074193,69.9301,253.5278,265.4127,94.6192,0,U,29228,999,10760,.61106831E-4,.982E-5,0
CZ-4B R/B,2006-046C,2026-07-20T01:58:26.855328,15.18003768,.0033064,97.5432,245.5886,165.2595,194.9610,0,U,29507,999,8012,.12110144E-3,.2426E-4,0
